IRIDIUM 26              
1 24903U 97043A   25053.36691716  .00000915  00000+0  30240-3 0  9991
2 24903  86.4026 158.8296 0002306  97.4301 262.7159 14.36987809440252
IRIDIUM 22              
1 24907U 97043E   25053.55098609  .00000810  00000+0  27334-3 0  9992
2 24907  86.4032 162.1874 0002084  94.6444 265.4990 14.35819347440324
DUMMY MASS 1            
1 24925U 97048A   25054.07846030  .00001100  00000+0  12031-3 0  9995
2 24925  86.3399 188.0370 0006630 171.3335 188.8005 14.86812186488417
DUMMY MASS 2            
1 24926U 97048B   25053.61775063  .00001078  00000+0  11856-3 0  9990
2 24926  86.3396 189.8342 0006864 186.6908 173.4226 14.86563958487882
IRIDIUM 29              
1 24944U 97051A   25053.61366932  .00001039  00000+0  34911-3 0  9999
2 24944  86.4010 191.8978 0001832  92.3135 267.8272 14.36295883436820
IRIDIUM 33              
1 24946U 97051C   25053.61095853  .00000729  00000+0  25012-3 0  9999
2 24946  86.3927 191.1506 0009885  92.7698 267.4630 14.34774544436314
IRIDIUM 28              
1 24948U 97051E   25053.66123678  .00000967  00000+0  31837-3 0  9999
2 24948  86.4019 189.4615 0002475  95.2002 264.9478 14.37229857437391
IRIDIUM 36              
1 24967U 97056C   25053.71117252  .00001067  00000+0  35056-3 0  9991
2 24967  86.3961 221.0345 0002192  86.4141 273.7308 14.37427828435770
